TERRA                   
1 25994U 99068A   23035.23055149  .00000538  00000+0  12412-3 0  9991
2 25994  98.1114 106.8261 0002723 112.6241 313.6086 14.59011439230391
SL-16 R/B               
1 25861U 99039B   23035.13557745  .00000629  00000+0  92261-4 0  9992
2 25861  98.1565  70.7022 0014431 310.9780  49.0182 14.79069901269879
DELTA 2 R/B             
1 25876U 99041E   23035.16388796  .00002391  00000+0  44074-3 0  9998
2 25876  51.7671 111.6484 0526974 270.5341  83.5254 14.05646849203826
HELIOS 1B               
1 25977U 99064A   23035.11606495  .00000838  00000+0  10995-3 0  9998
2 25977  98.3063 243.5545 0002287 104.7781 255.3685 14.83085181248913
SL-16 R/B               
1 26070U 00006B   23034.18826614 -.00000100  00000+0 -26715-4 0  9996
2 26070  71.0033 314.3161 0014338 104.8701 255.4010 14.15517512188567
TITAN 4B R/B            
1 26474U 00047B   23035.11588551  .00002448  00000+0  21143-3 0  9992
2 26474  67.9957 306.5329 0057405 223.4824 136.1786 14.97806820223208
ENVISAT                 
1 27386U 02009A   23034.91807562  .00000280  00000+0  10571-3 0  9993
2 27386  98.2137  10.5280 0001225  89.4306 297.2888 14.38234594 96804
IDEFIX & ARIANE 42P R/B 
1 27422U 02021B   23035.13427278  .00000333  00000+0  14706-3 0  9998
2 27422  98.4777 339.4960 0010982 275.3829  84.6101 14.29549583 80650
