<?xml version="1.0" encoding="UTF-8"?>
<ndm xmlns:xsi="http://www.w3.org/2001/XMLSchema-instance" xsi:noNamespaceSchemaLocation="https://sanaregistry.org/r/ndmxml_unqualified/ndmxml-2.0.0-master-2.0.xsd">
<omm id="CCSDS_OMM_VERS" version="2.0">
<header><CREATION_DATE/><ORIGINATOR/></header><body><segment><metadata><OBJECT_NAME>SL-16 R/B</OBJECT_NAME><OBJECT_ID>1999-039B</OBJECT_ID><CENTER_NAME>EARTH</CENTER_NAME><REF_FRAME>TEME</REF_FRAME><TIME_SYSTEM>UTC</TIME_SYSTEM><MEAN_ELEMENT_THEORY>SGP4</MEAN_ELEMENT_THEORY></metadata><data><meanElements><EPOCH>2023-02-04T03:15:13.891680</EPOCH><MEAN_MOTION>14.79069901</MEAN_MOTION><ECCENTRICITY>.0014431</ECCENTRICITY><INCLINATION>98.1565</INCLINATION><RA_OF_ASC_NODE>70.7022</RA_OF_ASC_NODE><ARG_OF_PERICENTER>310.9780</ARG_OF_PERICENTER><MEAN_ANOMALY>49.0182</MEAN_ANOMALY></meanElements><tleParameters><EPHEMERIS_TYPE>0</EPHEMERIS_TYPE><CLASSIFICATION_TYPE>U</CLASSIFICATION_TYPE><NORAD_CAT_ID>25861</NORAD_CAT_ID><ELEMENT_SET_NO>999</ELEMENT_SET_NO><REV_AT_EPOCH>26987</REV_AT_EPOCH><BSTAR>.92261E-4</BSTAR><MEAN_MOTION_DOT>.629E-5</MEAN_MOTION_DOT><MEAN_MOTION_DDOT>0</MEAN_MOTION_DDOT></tleParameters></data></segment></body></omm>
<omm id="CCSDS_OMM_VERS" version="2.0">
<header><CREATION_DATE/><ORIGINATOR/></header><body><segment><metadata><OBJECT_NAME>DELTA 2 R/B</OBJECT_NAME><OBJECT_ID>1999-041E</OBJECT_ID><CENTER_NAME>EARTH</CENTER_NAME><REF_FRAME>TEME</REF_FRAME><TIME_SYSTEM>UTC</TIME_SYSTEM><MEAN_ELEMENT_THEORY>SGP4</MEAN_ELEMENT_THEORY></metadata><data><meanElements><EPOCH>2023-02-04T03:55:59.919744</EPOCH><MEAN_MOTION>14.05646849</MEAN_MOTION><ECCENTRICITY>.0526974</ECCENTRICITY><INCLINATION>51.7671</INCLINATION><RA_OF_ASC_NODE>111.6484</RA_OF_ASC_NODE><ARG_OF_PERICENTER>270.5341</ARG_OF_PERICENTER><MEAN_ANOMALY>83.5254</MEAN_ANOMALY></meanElements><tleParameters><EPHEMERIS_TYPE>0</EPHEMERIS_TYPE><CLASSIFICATION_TYPE>U</CLASSIFICATION_TYPE><NORAD_CAT_ID>25876</NORAD_CAT_ID><ELEMENT_SET_NO>999</ELEMENT_SET_NO><REV_AT_EPOCH>20382</REV_AT_EPOCH><BSTAR>.44074E-3</BSTAR><MEAN_MOTION_DOT>.2391E-4</MEAN_MOTION_DOT><MEAN_MOTION_DDOT>0</MEAN_MOTION_DDOT></tleParameters></data></segment></body></omm>
<omm id="CCSDS_OMM_VERS" version="2.0">
<header><CREATION_DATE/><ORIGINATOR/></header><body><segment><metadata><OBJECT_NAME>HELIOS 1B</OBJECT_NAME><OBJECT_ID>1999-064A</OBJECT_ID><CENTER_NAME>EARTH</CENTER_NAME><REF_FRAME>TEME</REF_FRAME><TIME_SYSTEM>UTC</TIME_SYSTEM><MEAN_ELEMENT_THEORY>SGP4</MEAN_ELEMENT_THEORY></metadata><data><meanElements><EPOCH>2023-02-04T02:47:08.011680</EPOCH><MEAN_MOTION>14.83085181</MEAN_MOTION><ECCENTRICITY>.0002287</ECCENTRICITY><INCLINATION>98.3063</INCLINATION><RA_OF_ASC_NODE>243.5545</RA_OF_ASC_NODE><ARG_OF_PERICENTER>104.7781</ARG_OF_PERICENTER><MEAN_ANOMALY>255.3685</MEAN_ANOMALY></meanElements><tleParameters><EPHEMERIS_TYPE>0</EPHEMERIS_TYPE><CLASSIFICATION_TYPE>U</CLASSIFICATION_TYPE><NORAD_CAT_ID>25977</NORAD_CAT_ID><ELEMENT_SET_NO>999</ELEMENT_SET_NO><REV_AT_EPOCH>24891</REV_AT_EPOCH><BSTAR>.10995E-3</BSTAR><MEAN_MOTION_DOT>.838E-5</MEAN_MOTION_DOT><MEAN_MOTION_DDOT>0</MEAN_MOTION_DDOT></tleParameters></data></segment></body></omm>
<omm id="CCSDS_OMM_VERS" version="2.0">
<header><CREATION_DATE/><ORIGINATOR/></header><body><segment><metadata><OBJECT_NAME>TERRA</OBJECT_NAME><OBJECT_ID>1999-068A</OBJECT_ID><CENTER_NAME>EARTH</CENTER_NAME><REF_FRAME>TEME</REF_FRAME><TIME_SYSTEM>UTC</TIME_SYSTEM><MEAN_ELEMENT_THEORY>SGP4</MEAN_ELEMENT_THEORY></metadata><data><meanElements><EPOCH>2023-02-04T05:31:59.648736</EPOCH><MEAN_MOTION>14.59011439</MEAN_MOTION><ECCENTRICITY>.0002723</ECCENTRICITY><INCLINATION>98.1114</INCLINATION><RA_OF_ASC_NODE>106.8261</RA_OF_ASC_NODE><ARG_OF_PERICENTER>112.6241</ARG_OF_PERICENTER><MEAN_ANOMALY>313.6086</MEAN_ANOMALY></meanElements><tleParameters><EPHEMERIS_TYPE>0</EPHEMERIS_TYPE><CLASSIFICATION_TYPE>U</CLASSIFICATION_TYPE><NORAD_CAT_ID>25994</NORAD_CAT_ID><ELEMENT_SET_NO>999</ELEMENT_SET_NO><REV_AT_EPOCH>23039</REV_AT_EPOCH><BSTAR>.12412E-3</BSTAR><MEAN_MOTION_DOT>.538E-5</MEAN_MOTION_DOT><MEAN_MOTION_DDOT>0</MEAN_MOTION_DDOT></tleParameters></data></segment></body></omm>
<omm id="CCSDS_OMM_VERS" version="2.0">
<header><CREATION_DATE/><ORIGINATOR/></header><body><segment><metadata><OBJECT_NAME>SL-16 R/B</OBJECT_NAME><OBJECT_ID>2000-006B</OBJECT_ID><CENTER_NAME>EARTH</CENTER_NAME><REF_FRAME>TEME</REF_FRAME><TIME_SYSTEM>UTC</TIME_SYSTEM><MEAN_ELEMENT_THEORY>SGP4</MEAN_ELEMENT_THEORY></metadata><data><meanElements><EPOCH>2023-02-03T04:31:06.194496</EPOCH><MEAN_MOTION>14.15517512</MEAN_MOTION><ECCENTRICITY>.0014338</ECCENTRICITY><INCLINATION>71.0033</INCLINATION><RA_OF_ASC_NODE>314.3161</RA_OF_ASC_NODE><ARG_OF_PERICENTER>104.8701</ARG_OF_PERICENTER><MEAN_ANOMALY>255.4010</MEAN_ANOMALY></meanElements><tleParameters><EPHEMERIS_TYPE>0</EPHEMERIS_TYPE><CLASSIFICATION_TYPE>U</CLASSIFICATION_TYPE><NORAD_CAT_ID>26070</NORAD_CAT_ID><ELEMENT_SET_NO>999</ELEMENT_SET_NO><REV_AT_EPOCH>18856</REV_AT_EPOCH><BSTAR>-.26715E-4</BSTAR><MEAN_MOTION_DOT>-.1E-5</MEAN_MOTION_DOT><MEAN_MOTION_DDOT>0</MEAN_MOTION_DDOT></tleParameters></data></segment></body></omm>
<omm id="CCSDS_OMM_VERS" version="2.0">
<header><CREATION_DATE/><ORIGINATOR/></header><body><segment><metadata><OBJECT_NAME>TITAN 4B R/B</OBJECT_NAME><OBJECT_ID>2000-047B</OBJECT_ID><CENTER_NAME>EARTH</CENTER_NAME><REF_FRAME>TEME</REF_FRAME><TIME_SYSTEM>UTC</TIME_SYSTEM><MEAN_ELEMENT_THEORY>SGP4</MEAN_ELEMENT_THEORY></metadata><data><meanElements><EPOCH>2023-02-04T02:46:52.508064</EPOCH><MEAN_MOTION>14.97806820</MEAN_MOTION><ECCENTRICITY>.0057405</ECCENTRICITY><INCLINATION>67.9957</INCLINATION><RA_OF_ASC_NODE>306.5329</RA_OF_ASC_NODE><ARG_OF_PERICENTER>223.4824</ARG_OF_PERICENTER><MEAN_ANOMALY>136.1786</MEAN_ANOMALY></meanElements><tleParameters><EPHEMERIS_TYPE>0</EPHEMERIS_TYPE><CLASSIFICATION_TYPE>U</CLASSIFICATION_TYPE><NORAD_CAT_ID>26474</NORAD_CAT_ID><ELEMENT_SET_NO>999</ELEMENT_SET_NO><REV_AT_EPOCH>22320</REV_AT_EPOCH><BSTAR>.21143E-3</BSTAR><MEAN_MOTION_DOT>.2448E-4</MEAN_MOTION_DOT><MEAN_MOTION_DDOT>0</MEAN_MOTION_DDOT></tleParameters></data></segment></body></omm>
<omm id="CCSDS_OMM_VERS" version="2.0">
<header><CREATION_DATE/><ORIGINATOR/></header><body><segment><metadata><OBJECT_NAME>ENVISAT</OBJECT_NAME><OBJECT_ID>2002-009A</OBJECT_ID><CENTER_NAME>EARTH</CENTER_NAME><REF_FRAME>TEME</REF_FRAME><TIME_SYSTEM>UTC</TIME_SYSTEM><MEAN_ELEMENT_THEORY>SGP4</MEAN_ELEMENT_THEORY></metadata><data><meanElements><EPOCH>2023-02-03T22:02:01.733568</EPOCH><MEAN_MOTION>14.38234594</MEAN_MOTION><ECCENTRICITY>.0001225</ECCENTRICITY><INCLINATION>98.2137</INCLINATION><RA_OF_ASC_NODE>10.5280</RA_OF_ASC_NODE><ARG_OF_PERICENTER>89.4306</ARG_OF_PERICENTER><MEAN_ANOMALY>297.2888</MEAN_ANOMALY></meanElements><tleParameters><EPHEMERIS_TYPE>0</EPHEMERIS_TYPE><CLASSIFICATION_TYPE>U</CLASSIFICATION_TYPE><NORAD_CAT_ID>27386</NORAD_CAT_ID><ELEMENT_SET_NO>999</ELEMENT_SET_NO><REV_AT_EPOCH>9673</REV_AT_EPOCH><BSTAR>.10571E-3</BSTAR><MEAN_MOTION_DOT>.28E-5</MEAN_MOTION_DOT><MEAN_MOTION_DDOT>0</MEAN_MOTION_DDOT></tleParameters></data></segment></body></omm>
<omm id="CCSDS_OMM_VERS" version="2.0">
<header><CREATION_DATE/><ORIGINATOR/></header><body><segment><metadata><OBJECT_NAME>IDEFIX &amp; ARIANE 42P R/B</OBJECT_NAME><OBJECT_ID>2002-021B</OBJECT_ID><CENTER_NAME>EARTH</CENTER_NAME><REF_FRAME>TEME</REF_FRAME><TIME_SYSTEM>UTC</TIME_SYSTEM><MEAN_ELEMENT_THEORY>SGP4</MEAN_ELEMENT_THEORY></metadata><data><meanElements><EPOCH>2023-02-04T03:13:21.168192</EPOCH><MEAN_MOTION>14.29549583</MEAN_MOTION><ECCENTRICITY>.0010982</ECCENTRICITY><INCLINATION>98.4777</INCLINATION><RA_OF_ASC_NODE>339.4960</RA_OF_ASC_NODE><ARG_OF_PERICENTER>275.3829</ARG_OF_PERICENTER><MEAN_ANOMALY>84.6101</MEAN_ANOMALY></meanElements><tleParameters><EPHEMERIS_TYPE>0</EPHEMERIS_TYPE><CLASSIFICATION_TYPE>U</CLASSIFICATION_TYPE><NORAD_CAT_ID>27422</NORAD_CAT_ID><ELEMENT_SET_NO>999</ELEMENT_SET_NO><REV_AT_EPOCH>8065</REV_AT_EPOCH><BSTAR>.14706E-3</BSTAR><MEAN_MOTION_DOT>.333E-5</MEAN_MOTION_DOT><MEAN_MOTION_DDOT>0</MEAN_MOTION_DDOT></tleParameters></data></segment></body></omm>

</ndm>
